UNKNOWN                 
1 81317U          26032.51248866  .00000139  00000+0  33751-3 0  9997
2 81317  67.1398  64.8350 0213284 358.3090 150.1446 13.38033787595429
UNKNOWN                 
1 81323U          26022.40288314  .00017147  00000+0  21573-2 0  9998
2 81323  65.7505 274.9589 0340684 292.0669  64.4579 14.48797606118940
UNKNOWN                 
1 81329U          26033.19866058  .00004331  00000+0  15396-2 0  9996
2 81329  65.8237  12.4612 0834083   6.6025 354.5220 13.22418662584886
UNKNOWN                 
1 81343U          26032.86257028  .00007600  00000+0  53757-3 0  9992
2 81343  85.8773 172.0227 0010216  77.6776 282.5600 15.04679826462003
UNKNOWN                 
1 81359U          26033.10517915  .00000545  00000+0  57520-3 0  9994
2 81359  66.7990 289.0452 0119778 290.3639  68.4599 13.78928440612567
UNKNOWN                 
1 81366U          26023.57111937  .00002808  00000+0  10155-2 0  9992
2 81366  65.8851 333.0189 0710553  61.2235 305.8290 13.45240902 71584
UNKNOWN                 
1 81371U          26019.54096183  .00004811  00000+0  77196-3 0  9990
2 81371  98.8124 124.0055 0069399 246.4516 112.9387 14.70593876647395
UNKNOWN                 
1 81386U          26029.88772037  .00006812  00000+0  22178-2 0  9995
2 81386  71.0468 252.0345 0086507   7.9389 352.3091 14.36919065631150
UNKNOWN                 
1 81390U          26018.98013495 -.00000075  00000+0 -19210-3 0  9996
2 81390 103.1077 275.1799 0169605  77.6089 284.3892 12.35626022504695
UNKNOWN                 
1 81392U          26027.24031549  .00004787  00000+0  44699-2 0  9997
2 81392 100.4023  25.0693 0041455 279.1497 148.4912 13.82040403608466
UNKNOWN                 
1 81427U          26033.13029739  .00000571  00000+0  35628-3 0  9999
2 81427  98.7467 278.6052 0083265 254.0262 105.1722 14.07052810558992
UNKNOWN                 
1 81438U          26027.38657959  .00004092  00000+0  59462-2 0  9995
2 81438 100.3171 266.0585 0057821 324.2738  35.4534 13.54999020598124
