CCSDS_OMM_VERS = 2.0
CREATION_DATE  = 
ORIGINATOR     = 

OBJECT_NAME    = UNKNOWN
OBJECT_ID      = 
CENTER_NAME    = EARTH
REF_FRAME      = TEME
TIME_SYSTEM    = UTC
MEAN_ELEMENT_THEORY = SGP/SGP4

EPOCH          = 2026-02-01T12:17:59.020224
MEAN_MOTION    = 13.38033787
ECCENTRICITY   = .0213284
INCLINATION    = 67.1398
RA_OF_ASC_NODE = 64.8350
ARG_OF_PERICENTER = 358.3090
MEAN_ANOMALY   = 150.1446

EPHEMERIS_TYPE = 0
CLASSIFICATION_TYPE = U
NORAD_CAT_ID   = 81317
ELEMENT_SET_NO = 999
REV_AT_EPOCH   = 59542
BSTAR          = .33751E-3
MEAN_MOTION_DOT = .139E-5
MEAN_MOTION_DDOT = 0

CCSDS_OMM_VERS = 2.0
CREATION_DATE  = 
ORIGINATOR     = 

OBJECT_NAME    = UNKNOWN
OBJECT_ID      = 
CENTER_NAME    = EARTH
REF_FRAME      = TEME
TIME_SYSTEM    = UTC
MEAN_ELEMENT_THEORY = SGP/SGP4

EPOCH          = 2026-01-22T09:40:09.103296
MEAN_MOTION    = 14.48797606
ECCENTRICITY   = .0340684
INCLINATION    = 65.7505
RA_OF_ASC_NODE = 274.9589
ARG_OF_PERICENTER = 292.0669
MEAN_ANOMALY   = 64.4579

EPHEMERIS_TYPE = 0
CLASSIFICATION_TYPE = U
NORAD_CAT_ID   = 81323
ELEMENT_SET_NO = 999
REV_AT_EPOCH   = 11894
BSTAR          = .21573E-2
MEAN_MOTION_DOT = .17147E-3
MEAN_MOTION_DDOT = 0

CCSDS_OMM_VERS = 2.0
CREATION_DATE  = 
ORIGINATOR     = 

OBJECT_NAME    = UNKNOWN
OBJECT_ID      = 
CENTER_NAME    = EARTH
REF_FRAME      = TEME
TIME_SYSTEM    = UTC
MEAN_ELEMENT_THEORY = SGP/SGP4

EPOCH          = 2026-02-02T04:46:04.274112
MEAN_MOTION    = 13.22418662
ECCENTRICITY   = .0834083
INCLINATION    = 65.8237
RA_OF_ASC_NODE = 12.4612
ARG_OF_PERICENTER = 6.6025
MEAN_ANOMALY   = 354.5220

EPHEMERIS_TYPE = 0
CLASSIFICATION_TYPE = U
NORAD_CAT_ID   = 81329
ELEMENT_SET_NO = 999
REV_AT_EPOCH   = 58488
BSTAR          = .15396E-2
MEAN_MOTION_DOT = .4331E-4
MEAN_MOTION_DDOT = 0

CCSDS_OMM_VERS = 2.0
CREATION_DATE  = 
ORIGINATOR     = 

OBJECT_NAME    = UNKNOWN
OBJECT_ID      = 
CENTER_NAME    = EARTH
REF_FRAME      = TEME
TIME_SYSTEM    = UTC
MEAN_ELEMENT_THEORY = SGP/SGP4

EPOCH          = 2026-02-01T20:42:06.072192
MEAN_MOTION    = 15.04679826
ECCENTRICITY   = .0010216
INCLINATION    = 85.8773
RA_OF_ASC_NODE = 172.0227
ARG_OF_PERICENTER = 77.6776
MEAN_ANOMALY   = 282.5600

EPHEMERIS_TYPE = 0
CLASSIFICATION_TYPE = U
NORAD_CAT_ID   = 81343
ELEMENT_SET_NO = 999
REV_AT_EPOCH   = 46200
BSTAR          = .53757E-3
MEAN_MOTION_DOT = .76E-4
MEAN_MOTION_DDOT = 0

CCSDS_OMM_VERS = 2.0
CREATION_DATE  = 
ORIGINATOR     = 

OBJECT_NAME    = UNKNOWN
OBJECT_ID      = 
CENTER_NAME    = EARTH
REF_FRAME      = TEME
TIME_SYSTEM    = UTC
MEAN_ELEMENT_THEORY = SGP/SGP4

EPOCH          = 2026-02-02T02:31:27.478560
MEAN_MOTION    = 13.78928440
ECCENTRICITY   = .0119778
INCLINATION    = 66.7990
RA_OF_ASC_NODE = 289.0452
ARG_OF_PERICENTER = 290.3639
MEAN_ANOMALY   = 68.4599

EPHEMERIS_TYPE = 0
CLASSIFICATION_TYPE = U
NORAD_CAT_ID   = 81359
ELEMENT_SET_NO = 999
REV_AT_EPOCH   = 61256
BSTAR          = .5752E-3
MEAN_MOTION_DOT = .545E-5
MEAN_MOTION_DDOT = 0

CCSDS_OMM_VERS = 2.0
CREATION_DATE  = 
ORIGINATOR     = 

OBJECT_NAME    = UNKNOWN
OBJECT_ID      = 
CENTER_NAME    = EARTH
REF_FRAME      = TEME
TIME_SYSTEM    = UTC
MEAN_ELEMENT_THEORY = SGP/SGP4

EPOCH          = 2026-01-23T13:42:24.713568
MEAN_MOTION    = 13.45240902
ECCENTRICITY   = .0710553
INCLINATION    = 65.8851
RA_OF_ASC_NODE = 333.0189
ARG_OF_PERICENTER = 61.2235
MEAN_ANOMALY   = 305.8290

EPHEMERIS_TYPE = 0
CLASSIFICATION_TYPE = U
NORAD_CAT_ID   = 81366
ELEMENT_SET_NO = 999
REV_AT_EPOCH   = 7158
BSTAR          = .10155E-2
MEAN_MOTION_DOT = .2808E-4
MEAN_MOTION_DDOT = 0

CCSDS_OMM_VERS = 2.0
CREATION_DATE  = 
ORIGINATOR     = 

OBJECT_NAME    = UNKNOWN
OBJECT_ID      = 
CENTER_NAME    = EARTH
REF_FRAME      = TEME
TIME_SYSTEM    = UTC
MEAN_ELEMENT_THEORY = SGP/SGP4

EPOCH          = 2026-01-19T12:58:59.102112
MEAN_MOTION    = 14.70593876
ECCENTRICITY   = .0069399
INCLINATION    = 98.8124
RA_OF_ASC_NODE = 124.0055
ARG_OF_PERICENTER = 246.4516
MEAN_ANOMALY   = 112.9387

EPHEMERIS_TYPE = 0
CLASSIFICATION_TYPE = U
NORAD_CAT_ID   = 81371
ELEMENT_SET_NO = 999
REV_AT_EPOCH   = 64739
BSTAR          = .77196E-3
MEAN_MOTION_DOT = .4811E-4
MEAN_MOTION_DDOT = 0

CCSDS_OMM_VERS = 2.0
CREATION_DATE  = 
ORIGINATOR     = 

OBJECT_NAME    = UNKNOWN
OBJECT_ID      = 
CENTER_NAME    = EARTH
REF_FRAME      = TEME
TIME_SYSTEM    = UTC
MEAN_ELEMENT_THEORY = SGP/SGP4

EPOCH          = 2026-01-29T21:18:19.039968
MEAN_MOTION    = 14.36919065
ECCENTRICITY   = .0086507
INCLINATION    = 71.0468
RA_OF_ASC_NODE = 252.0345
ARG_OF_PERICENTER = 7.9389
MEAN_ANOMALY   = 352.3091

EPHEMERIS_TYPE = 0
CLASSIFICATION_TYPE = U
NORAD_CAT_ID   = 81386
ELEMENT_SET_NO = 999
REV_AT_EPOCH   = 63115
BSTAR          = .22178E-2
MEAN_MOTION_DOT = .6812E-4
MEAN_MOTION_DDOT = 0

CCSDS_OMM_VERS = 2.0
CREATION_DATE  = 
ORIGINATOR     = 

OBJECT_NAME    = UNKNOWN
OBJECT_ID      = 
CENTER_NAME    = EARTH
REF_FRAME      = TEME
TIME_SYSTEM    = UTC
MEAN_ELEMENT_THEORY = SGP/SGP4

EPOCH          = 2026-01-18T23:31:23.659680
MEAN_MOTION    = 12.35626022
ECCENTRICITY   = .0169605
INCLINATION    = 103.1077
RA_OF_ASC_NODE = 275.1799
ARG_OF_PERICENTER = 77.6089
MEAN_ANOMALY   = 284.3892

EPHEMERIS_TYPE = 0
CLASSIFICATION_TYPE = U
NORAD_CAT_ID   = 81390
ELEMENT_SET_NO = 999
REV_AT_EPOCH   = 50469
BSTAR          = -.1921E-3
MEAN_MOTION_DOT = -.75E-6
MEAN_MOTION_DDOT = 0

CCSDS_OMM_VERS = 2.0
CREATION_DATE  = 
ORIGINATOR     = 

OBJECT_NAME    = UNKNOWN
OBJECT_ID      = 
CENTER_NAME    = EARTH
REF_FRAME      = TEME
TIME_SYSTEM    = UTC
MEAN_ELEMENT_THEORY = SGP/SGP4

EPOCH          = 2026-01-27T05:46:03.258336
MEAN_MOTION    = 13.82040403
ECCENTRICITY   = .0041455
INCLINATION    = 100.4023
RA_OF_ASC_NODE = 25.0693
ARG_OF_PERICENTER = 279.1497
MEAN_ANOMALY   = 148.4912

EPHEMERIS_TYPE = 0
CLASSIFICATION_TYPE = U
NORAD_CAT_ID   = 81392
ELEMENT_SET_NO = 999
REV_AT_EPOCH   = 60846
BSTAR          = .44699E-2
MEAN_MOTION_DOT = .4787E-4
MEAN_MOTION_DDOT = 0

CCSDS_OMM_VERS = 2.0
CREATION_DATE  = 
ORIGINATOR     = 

OBJECT_NAME    = UNKNOWN
OBJECT_ID      = 
CENTER_NAME    = EARTH
REF_FRAME      = TEME
TIME_SYSTEM    = UTC
MEAN_ELEMENT_THEORY = SGP/SGP4

EPOCH          = 2026-02-02T03:07:37.694496
MEAN_MOTION    = 14.07052810
ECCENTRICITY   = .0083265
INCLINATION    = 98.7467
RA_OF_ASC_NODE = 278.6052
ARG_OF_PERICENTER = 254.0262
MEAN_ANOMALY   = 105.1722

EPHEMERIS_TYPE = 0
CLASSIFICATION_TYPE = U
NORAD_CAT_ID   = 81427
ELEMENT_SET_NO = 999
REV_AT_EPOCH   = 55899
BSTAR          = .35628E-3
MEAN_MOTION_DOT = .571E-5
MEAN_MOTION_DDOT = 0

CCSDS_OMM_VERS = 2.0
CREATION_DATE  = 
ORIGINATOR     = 

OBJECT_NAME    = UNKNOWN
OBJECT_ID      = 
CENTER_NAME    = EARTH
REF_FRAME      = TEME
TIME_SYSTEM    = UTC
MEAN_ELEMENT_THEORY = SGP/SGP4

EPOCH          = 2026-01-27T09:16:40.476576
MEAN_MOTION    = 13.54999020
ECCENTRICITY   = .0057821
INCLINATION    = 100.3171
RA_OF_ASC_NODE = 266.0585
ARG_OF_PERICENTER = 324.2738
MEAN_ANOMALY   = 35.4534

EPHEMERIS_TYPE = 0
CLASSIFICATION_TYPE = U
NORAD_CAT_ID   = 81438
ELEMENT_SET_NO = 999
REV_AT_EPOCH   = 59812
BSTAR          = .59462E-2
MEAN_MOTION_DOT = .4092E-4
MEAN_MOTION_DDOT = 0

